SMILE                   
1 69123U 26109A   26144.65318427 -.00001976  00000+0 -42379-3 0  9994
2 69123  70.0007 229.2745 0009123 259.5159 100.4951 14.57062785   802
STARLINK-37726          
1 69124U 26110A   26156.25005787 -.02451797  00000+0 -41860-1 0  9992
2 69124  97.2855 352.3559 0002179  80.7364  80.7622 15.55090567  3730
STARLINK-37722          
1 69125U 26110B   26156.25005787 -.01980154  00000+0 -18432-1 0  9995
2 69125  97.2841 352.4471 0001490  80.4073 302.4525 15.70347501  3791
STARLINK-37715          
1 69126U 26110C   26156.24004236  .00109192  00000+0  56294-3 0  9995
2 69126  97.2842 352.4509 0001424  88.2526 271.8905 15.80845073  3756
STARLINK-37706          
1 69127U 26110D   26156.23929158  .00187683  00000+0  95719-3 0  9990
2 69127  97.2843 352.4523 0001486  86.3362 273.8077 15.80872168  3756
STARLINK-37723          
1 69128U 26110E   26156.23853773  .00178821  00000+0  91294-3 0  9998
2 69128  97.2842 352.4530 0001302 103.3309 256.8104 15.80872657  3757
STARLINK-37720          
1 69129U 26110F   26156.25005787 -.02600561  00000+0 -43488-1 0  9990
2 69129  97.2850 352.3766 0002267  83.5562 126.7720 15.55258737  3745
STARLINK-37533          
1 69130U 26110G   26156.23628515  .00170092  00000+0  86962-3 0  9993
2 69130  97.2843 352.4563 0001034  46.8467 313.2888 15.80864344  3756
STARLINK-37530          
1 69131U 26110H   26156.29884707  .00277968  00000+0  14041-2 0  9995
2 69131  97.2841 352.5248 0001554  82.8487 277.2958 15.80847545  3767
STARLINK-37660          
1 69132U 26110J   26156.25005787 -.02004813  00000+0 -17386-1 0  9990
2 69132  97.2844 352.4608 0001592  78.7644 335.2260 15.72061838  3744
STARLINK-37633          
1 69133U 26110K   26156.25005787 -.01951658  00000+0 -16610-1 0  9997
2 69133  97.2847 352.4648 0001630  75.1581 349.5801 15.72963684  3745
STARLINK-37361          
1 69134U 26110L   26156.29658294  .00179836  00000+0  91858-3 0  9995
2 69134  97.2846 352.5282 0001675  71.0739 289.0710 15.80858851  3766
STARLINK-37372          
1 69135U 26110M   26156.25005787 -.02679185  00000+0 -19468-1 0  9996
2 69135  97.2846 352.4758 0002004  64.7613  25.9376 15.76547062  3748
STARLINK-37531          
1 69136U 26110N   26156.29546481 -.00828314  00000+0 -51591-2 0  9994
2 69136  97.2844 352.5294 0003279 134.2627 225.8910 15.78987781  3761
STARLINK-37662          
1 69137U 26110P   26156.25005787 -.02307333  00000+0 -18268-1 0  9998
2 69137  97.2850 352.4766 0001963  84.4888   6.1876 15.74646538  3742
STARLINK-37658          
1 69138U 26110Q   26156.25005787 -.02596046  00000+0 -27437-1 0  9998
2 69138  97.2849 352.4545 0001663  77.7723 320.6373 15.67652305  3743
STARLINK-37659          
1 69139U 26110R   26156.25005787 -.02538012  00000+0 -29009-1 0  9995
2 69139  97.2847 352.4459 0001591  75.0250 305.0080 15.65639113  3744
STARLINK-37653          
1 69140U 26110S   26156.25005787 -.02589337  00000+0 -31213-1 0  9993
2 69140  97.2846 352.4467 0001525  79.7609 301.3526 15.64389098  3747
STARLINK-37654          
1 69141U 26110T   26156.25005787 -.01972538  00000+0 -15629-1 0  9995
2 69141  97.2848 352.4850 0001111  99.3087  12.9430 15.74661776  3741
