OBJECT_NAME,OBJECT_ID,EPOCH,MEAN_MOTION,ECCENTRICITY,INCLINATION,RA_OF_ASC_NODE,ARG_OF_PERICENTER,MEAN_ANOMALY,EPHEMERIS_TYPE,CLASSIFICATION_TYPE,NORAD_CAT_ID,ELEMENT_SET_NO,REV_AT_EPOCH,BSTAR,MEAN_MOTION_DOT,MEAN_MOTION_DDOT
SMILE,2026-109A,2026-05-24T15:40:35.120928,14.57062785,.00091232,70.0007,229.2745,259.5159,100.4951,0,U,69123,999,80,-.42378883E-3,-.1976E-4,0
STARLINK-37726,2026-110A,2026-06-05T06:00:04.999968,15.55090567,.00021791,97.2855,352.3559,80.7364,80.7622,0,U,69124,999,373,-.41860401E-1,-.2451797E-1,0
STARLINK-37722,2026-110B,2026-06-05T06:00:04.999968,15.70347501,.00014902,97.2841,352.4471,80.4073,302.4525,0,U,69125,999,379,-.18431659E-1,-.1980154E-1,0
STARLINK-37715,2026-110C,2026-06-05T05:45:39.659904,15.80845073,.00014249,97.2842,352.4509,88.2526,271.8905,0,U,69126,999,375,.56293977E-3,.109192E-2,0
STARLINK-37706,2026-110D,2026-06-05T05:44:34.792512,15.80872168,.00014861,97.2843,352.4523,86.3362,273.8077,0,U,69127,999,375,.95718541E-3,.187683E-2,0
STARLINK-37723,2026-110E,2026-06-05T05:43:29.659872,15.80872657,.00013028,97.2842,352.4530,103.3309,256.8104,0,U,69128,999,375,.9129386E-3,.178821E-2,0
STARLINK-37720,2026-110F,2026-06-05T06:00:04.999968,15.55258737,.00022673,97.2850,352.3766,83.5562,126.7720,0,U,69129,999,374,-.43487672E-1,-.2600561E-1,0
STARLINK-37533,2026-110G,2026-06-05T05:40:15.036960,15.80864344,.00010345,97.2843,352.4563,46.8467,313.2888,0,U,69130,999,375,.86961796E-3,.170092E-2,0
STARLINK-37530,2026-110H,2026-06-05T07:10:20.386848,15.80847545,.0001554,97.2841,352.5248,82.8487,277.2958,0,U,69131,999,376,.14041477E-2,.277968E-2,0
STARLINK-37660,2026-110J,2026-06-05T06:00:04.999968,15.72061838,.00015928,97.2844,352.4608,78.7644,335.2260,0,U,69132,999,374,-.17386442E-1,-.2004813E-1,0
STARLINK-37633,2026-110K,2026-06-05T06:00:04.999968,15.72963684,.00016302,97.2847,352.4648,75.1581,349.5801,0,U,69133,999,374,-.1661039E-1,-.1951658E-1,0
STARLINK-37361,2026-110L,2026-06-05T07:07:04.766016,15.80858851,.0001675,97.2846,352.5282,71.0739,289.0710,0,U,69134,999,376,.91857506E-3,.179836E-2,0
STARLINK-37372,2026-110M,2026-06-05T06:00:04.999968,15.76547062,.00020049,97.2846,352.4758,64.7613,25.9376,0,U,69135,999,374,-.19467973E-1,-.2679185E-1,0
STARLINK-37531,2026-110N,2026-06-05T07:05:28.159584,15.78987781,.00032797,97.2844,352.5294,134.2627,225.8910,0,U,69136,999,376,-.51591099E-2,-.828314E-2,0
STARLINK-37662,2026-110P,2026-06-05T06:00:04.999968,15.74646538,.00019638,97.2850,352.4766,84.4888,6.1876,0,U,69137,999,374,-.18267749E-1,-.2307333E-1,0
STARLINK-37658,2026-110Q,2026-06-05T06:00:04.999968,15.67652305,.00016633,97.2849,352.4545,77.7723,320.6373,0,U,69138,999,374,-.27437064E-1,-.2596046E-1,0
STARLINK-37659,2026-110R,2026-06-05T06:00:04.999968,15.65639113,.00015914,97.2847,352.4459,75.0250,305.0080,0,U,69139,999,374,-.29009173E-1,-.2538012E-1,0
STARLINK-37653,2026-110S,2026-06-05T06:00:04.999968,15.64389098,.00015258,97.2846,352.4467,79.7609,301.3526,0,U,69140,999,374,-.31212766E-1,-.2589337E-1,0
STARLINK-37654,2026-110T,2026-06-05T06:00:04.999968,15.74661776,.00011117,97.2848,352.4850,99.3087,12.9430,0,U,69141,999,374,-.15628945E-1,-.1972538E-1,0
